STARLINK-31032          
1 58535U 23192E   26068.27928558  .00002412  00000+0  93542-4 0  9996
2 58535  53.1623  64.5659 0001491  87.9905 272.1267 15.30202083125926
NUSAT-48 (HENRIETTA LE*)
1 60498U 24149AG  26068.80506098  .00012988  00000+0  45212-3 0  9999
2 60498  97.3923 150.8264 0002754 263.3026  96.7901 15.29812597 86946
